# Made by eph2tle, compiled Sep 29 2024 11:19:35
# Run at Sat Oct  5 21:39:45 2024
#
#    The following TLEs (Two-Line Elements) were generated by fitting
# a numerically-integrated ephemeris,  based on the orbit given below,
# to the SDP4/SGP4 models.  Each TLE is good for the interval between
# its epoch and the epoch of the subsequent TLE (usually one day).
# The maximum deviation between the numerically integrated ephemerides
# and the TLE-based ephemeris, in kilometers,  is given for each TLE
# as the "worst residual".
#
#    This fitting is done using the 'eph2tle' code packaged with Find_Orb.
# The code has details on how the TLEs were computed :
#
#    https://github.com/Bill-Gray/find_orb/eph2tle.cpp
#
#    Be warned:  the error given is that between the numerically
# integrated ephems and the TLE model.  There will usually be at
# least some additional difference between the ephems and the actual
# motion of the satellite,  especially if the ephemerides are based
# on a short arc.  If the following orbital elements say something
# like "[based on] 10 observations 2015 Jan. 1-13",  and the TLEs
# are for 2015 May,  the extrapolation may be tenuous at best.  If
# your application requires a specific level of accuracy,  you may
# want to contact me;  I can give you some idea as to the fit of the
# underlying data (and possibly TLEs based on newer data).
#
#   You can usually find the underlying observational data,  and the
# fitted orbit,  residuals,  ephemerides,  and sometimes some comments
# about the object,  among the pages listed at
#
#    https://www.projectpluto.com/pluto/mpecs/pseudo.htm
#
#    WARNING:  for this object,  "normal" TLEs cannot be fitted.  (This
# usually means an object with an hyperbolic or nearly-parabolic orbit.)
# For this and similar cases,   an alternative model is used,  in which
# most of the traditional TLE data is replaced by six signed 8-digit hex
# numbers.  These six numbers are a state vector,  numerically integrated
# using a simplified force model.  This is necessary for objects at L2 or
# L1,  and sometimes for objects in high orbits where the SDP4/SGP4 model
# fails.  Some documentation is in 'get_el.cpp' in the source code at
# https://www.github.com/Bill-Gray/sat_code ; look for 'hex' in that file,
# with the actual integration done in 'sdp4.cpp'.  But be aware:  it's my
# own extension,  doesn't work with other code,  and is therefore used
# only when necessary.
#
#    Also,  if you use a TLE outside the "correct" time range (between
# its MJD and that of the next TLE),  all bets are off.  I've carefully
# computed and minimized the worst error over the "correct" time frame,
# but the ephemeris may (or may not) diverge wildly outside of it.
#
# Ephem range: 60587.000000 60676.000000 1.000000
# Created Sat Oct  5 21:35:47 2024
# Ephemeris start:  4 Oct 2024  0:00:00
# Ephemeris end:    1 Jan 2025  0:00:00
# Times are all TDT
# Positions/velocities are in equatorial J2000
# Orbital elements:  C43KHJ1 = Vulcan Centaur
#    Perigee 2024 Oct 4.5003 +/- 0.000314 TT = 12:00:24 (JD 2460588.0003)
# Epoch 2024 Oct  4.5 TT = JDT 2460588.0                           Find_Orb
# q  6979.0042 +/- 3.31               (J2000 equator)
# H   26.17 G 0.15                    Peri.  205.7115 +/- 0.007
#                                     Node   359.5758 +/- 0.00048
# e   1.061316 +/- 7.7e-5             Incl.   26.6568 +/- 0.0033
# From 32 observations 2024 Oct. 5 (17.7 hr); mean residual 0".978
#
# 1 NoradU COSPAR   Epoch.epoch     dn/dt/2  d2n/dt2/6 BSTAR    T El# C
# 2 NoradU Inclina RAAscNode Eccent  ArgPeri MeanAno  MeanMotion Rev# C

# Worst residual: 182.00 km
# MJD 60587.000000 (2024 Oct  4  0:00)
C43KHJ1 = Vulcan Centaur
1 61448U 24179A   24277.99919926 +001H7H5S +001ZKYSM +001035SUH 24710
2 61448                          -000BQJLF -000BA1E2 -0005P2J7     05

# Worst residual: 0.96 km
# MJD 60588.000000 (2024 Oct  5  0:00)
C43KHJ1 = Vulcan Centaur
1 61448U 24179A   24278.99919926 +002NR4H2 -0007RNTZ -0003IPURH 24718
2 61448                          +000H7CFU +0001406I +0000MIXI     03

# Worst residual: 2.42 km
# MJD 60589.000000 (2024 Oct  6  0:00)
C43KHJ1 = Vulcan Centaur
1 61448U 24179A   24279.99919926 +006AK7BS +0002OZPI +00028WV7H 24711
2 61448                          +000DZ70D +00018EN7 +0000O9RQ     07

# Worst residual: 4.10 km
# MJD 60590.000000 (2024 Oct  7  0:00)
C43KHJ1 = Vulcan Centaur
1 61448U 24179A   24280.99919926 +009IUR2V +000DBFWU +00081C1KH 24712
2 61448                          +000D2K6L +000184B9 +0000NZNJ     05

# Worst residual: 1.08 km
# MJD 60591.000000 (2024 Oct  8  0:00)
C43KHJ1 = Vulcan Centaur
1 61448U 24179A   24281.99919926 +00CLPQX4 +000NW8QS +000DS2FGH 24716
2 61448                          +000CMVEL +0001833Q +0000NWD4     04

# Worst residual: 0.62 km
# MJD 60592.000000 (2024 Oct  9  0:00)
C43KHJ1 = Vulcan Centaur
1 61448U 24179A   24282.99919926 +00FLPNS3 +000YI9C8 +000JIVDBH 24713
2 61448                          +000CDUTP +00018E3V +0000NZY8     05

# Worst residual: 0.67 km
# MJD 60593.000000 (2024 Oct 10  0:00)
C43KHJ1 = Vulcan Centaur
1 61448U 24179A   24283.99919926 +00IJZR48 +001985PO +000PB6ZEH 24715
2 61448                          +000C88AY +00018Z34 +0000O8RZ     05

# Worst residual: 0.74 km
# MJD 60594.000000 (2024 Oct 11  0:00)
C43KHJ1 = Vulcan Centaur
1 61448U 24179A   24284.99919926 +00LH6I1V +001K431R +000V64TKH 24711
2 61448                          +000C4L8Y +00019S08 +0000OLKH     05

# Worst residual: 0.84 km
# MJD 60595.000000 (2024 Oct 12  0:00)
C43KHJ1 = Vulcan Centaur
1 61448U 24179A   24285.99919926 +00ODNO89 +001V7QII +00114INMH 24717
2 61448                          +000C2834 +0001AR6U +0000P1BH     00

# Worst residual: 0.95 km
# MJD 60596.000000 (2024 Oct 13  0:00)
C43KHJ1 = Vulcan Centaur
1 61448U 24179A   24286.99919926 +00R9OEWV +0026KFQC +00176Y81H 24717
2 61448                          +000C0QJQ +0001BV5O +0000PJ5M     06

# Worst residual: 0.99 km
# MJD 60597.000000 (2024 Oct 14  0:00)
C43KHJ1 = Vulcan Centaur
1 61448U 24179A   24287.99919926 +00U5F842 +002I763L +001DDU2RH 24718
2 61448                          +000BZWAF +0001D2K0 +0000Q2AD     00

# Worst residual: 1.13 km
# MJD 60598.000000 (2024 Oct 15  0:00)
C43KHJ1 = Vulcan Centaur
1 61448U 24179A   24288.99919926 +00X1124P +002U4M03 +001JPEAJH 24717
2 61448                          +000BZKHL +0001EC7G +0000QM0L     03

# Worst residual: 1.21 km
# MJD 60599.000000 (2024 Oct 16  0:00)
C43KHJ1 = Vulcan Centaur
1 61448U 24179A   24289.99919926 +00ZWM05R +0036D6WE +001Q5PLUH 24716
2 61448                          +000BZOM0 +0001FN96 +0000R5TH     06

# Worst residual: 1.00 km
# MJD 60600.000000 (2024 Oct 17  0:00)
C43KHJ1 = Vulcan Centaur
1 61448U 24179A   24290.99919926 +012S9QFT +003IX6Z2 +001WQRE6H 24712
2 61448                          +000C07M1 +0001GZD4 +0000RPGI     08

# Worst residual: 0.63 km
# MJD 60601.000000 (2024 Oct 18  0:00)
C43KHJ1 = Vulcan Centaur
1 61448U 24179A   24291.99919926 +015O3S90 +003VSWBL +0023GII2H 24711
2 61448                          +000C15AB +0001ICV5 +0000S923     01

# Worst residual: 0.91 km
# MJD 60602.000000 (2024 Oct 19  0:00)
C43KHJ1 = Vulcan Centaur
1 61448U 24179A   24292.99919926 +018K7OL1 +00490QSI +002AB0GTH 24716
2 61448                          +000C2HON +0001JSQS +0000ST3W     01

# Worst residual: 1.32 km
# MJD 60603.000000 (2024 Oct 20  0:00)
C43KHJ1 = Vulcan Centaur
1 61448U 24179A   24293.99919926 +01BGOYC6 +004MLH0X +002HAGBSH 24718
2 61448                          +000C48OC +0001LCGY +0000TEDD     08

# Worst residual: 1.68 km
# MJD 60604.000000 (2024 Oct 21  0:00)
C43KHJ1 = Vulcan Centaur
1 61448U 24179A   24294.99919926 +01EDN1KR +0050K7HR +002OF8CRH 24710
2 61448                          +000C6DPU +0001N1Q7 +0000U1QE     01

# Worst residual: 1.85 km
# MJD 60605.000000 (2024 Oct 22  0:00)
C43KHJ1 = Vulcan Centaur
1 61448U 24179A   24295.99919926 +01HB57RF +005EYH4Y +002VPYHLH 24711
2 61448                          +000C8VU1 +0001OY5B +0000US28     00

# Worst residual: 1.81 km
# MJD 60606.000000 (2024 Oct 23  0:00)
C43KHJ1 = Vulcan Centaur
1 61448U 24179A   24296.99919926 +01K9AGFR +005TU651 +00337FQ5H 24713
2 61448                          +000CBPQA +0001R355 +0000VM41     04

# Worst residual: 1.67 km
# MJD 60607.000000 (2024 Oct 24  0:00)
C43KHJ1 = Vulcan Centaur
1 61448U 24179A   24297.99919926 +01N85F3Y +00699HOI +003AWMY3H 24716
2 61448                          +000CETXR +0001THUD +0000WKHM     06

# Worst residual: 1.52 km
# MJD 60608.000000 (2024 Oct 25  0:00)
C43KHJ1 = Vulcan Centaur
1 61448U 24179A   24298.99919926 +01Q7SEBX +006PAVIT +003IUNM9H 24716
2 61448                          +000CI6XX +0001W741 +0000XNNJ     04

# Worst residual: 1.45 km
# MJD 60609.000000 (2024 Oct 26  0:00)
C43KHJ1 = Vulcan Centaur
1 61448U 24179A   24299.99919926 +01T89BN5 +00760XV1 +003R2ON7H 24710
2 61448                          +000CLR96 +0001Z7L3 +0000YVY0     01

# Worst residual: 1.48 km
# MJD 60610.000000 (2024 Oct 27  0:00)
C43KHJ1 = Vulcan Centaur
1 61448U 24179A   24300.99919926 +01W9LRY5 +007NIFN9 +003ZLZG9H 24717
2 61448                          +000CPHFX +00022JQE +000109LZ     09

# Worst residual: 1.59 km
# MJD 60611.000000 (2024 Oct 28  0:00)
C43KHJ1 = Vulcan Centaur
1 61448U 24179A   24301.99919926 +01ZBV00D +0085U7A8 +0048HVAQH 24716
2 61448                          +000CTC4I +000267W6 +00011STW     02

# Worst residual: 1.73 km
# MJD 60612.000000 (2024 Oct 29  0:00)
C43KHJ1 = Vulcan Centaur
1 61448U 24179A   24302.99919926 +022F1WVF +008P35N8 +004HROQAH 24719
2 61448                          +000CX9YT +0002A8AS +00013HQ4     02

# Worst residual: 1.85 km
# MJD 60613.000000 (2024 Oct 30  0:00)
C43KHJ1 = Vulcan Centaur
1 61448U 24179A   24303.99919926 +025J745P +0099C96I +004RGT4AH 24711
2 61448                          +000D19NP +0002EL32 +00015CD5     03

